{"type":"FeatureCollection","features":[{"type":"Feature","id":"grande-dorsale","properties":{"id":"grande-dorsale"},"geometry":{"type":"LineString","coordinates":[[4.765389209553177,45.759946328805285],[4.797106121301709,45.756547816083014],[4.812098464233003,45.754713431314],[4.832424114221396,45.75773823800262],[4.8591804374287335,45.76148566379166],[4.861846004993254,45.76969797184009],[4.871615104930811,45.77085864010914],[4.914098767062114,45.76326193921673],[4.92042025916831,45.76062978154121],[4.964050240398336,45.763329071180635],[4.981473764018034,45.76694223531635],[5.075815053262232,45.72145092367384]]}},{"type":"Feature","id":"metro-e-bellecour","properties":{"id":"metro-e-bellecour"},"geometry":{"type":"LineString","coordinates":[[4.7655739198943365,45.76036507445076],[4.781266579224848,45.76388752534058],[4.797015251021662,45.75669644462084],[4.832811404081838,45.75734854241645]]}},{"type":"Feature","id":"ext-a-est","properties":{"id":"ext-a-est"},"geometry":{"type":"LineString","coordinates":[[4.921896284664314,45.76092411795764],[4.963535652919688,45.763689722064385],[4.982005764960292,45.7673218951322],[5.000415916747301,45.77137622388503]]}},{"type":"Feature","id":"ext-d","properties":{"id":"ext-d"},"geometry":{"type":"LineString","coordinates":[[4.803524804617098,45.78025935912012],[4.803049828923548,45.7818901231081],[4.801588365251149,45.783367961772285],[4.799842825565918,45.784402652653796],[4.797990821774789,45.785200655471755],[4.7954612556214045,45.78600914667743]]}},{"type":"Feature","id":"metro-e-part-dieu","properties":{"id":"metro-e-part-dieu"},"geometry":{"type":"LineString","coordinates":[[4.833075759713466,45.75744857867437],[4.860408782168207,45.760712720057]]}},{"type":"Feature","id":"ligne-du-nord","properties":{"id":"ligne-du-nord"},"geometry":{"type":"LineString","coordinates":[[4.86319078177246,45.77046922979588],[4.862247920126833,45.78824339327974],[4.8528196988470995,45.7989117252192],[4.8736993572806,45.822993013168826],[4.899220021279206,45.822025416345554]]}},{"type":"Feature","id":"teol","properties":{"id":"teol"},"geometry":{"type":"LineString","coordinates":[[4.819369239852335,45.74090976689709],[4.806643604304355,45.74501136816431],[4.804174809098981,45.74710336803713],[4.801088815090594,45.75125637075524],[4.799016778950971,45.75464006517842],[4.796856583146365,45.75645487411282],[4.794299616683901,45.75762370285719],[4.783965609671867,45.7570424177822],[4.780086074347423,45.75722696937376],[4.774663542020164,45.758580329060806],[4.769725943736233,45.754274064757055],[4.770563570681588,45.75218233363245]]}},{"type":"Feature","id":"modern-a","properties":{"id":"modern-a"},"geometry":{"type":"LineString","coordinates":[[4.82687439,45.74960631],[4.82724605,45.75001545],[4.82756018,45.75036125],[4.8277632,45.75063776],[4.828437,45.75169451],[4.8290241,45.75263886],[4.82946728,45.75341017],[4.82978986,45.75392218],[4.82995828,45.75418518],[4.83045652,45.75496955],[4.83079379,45.75550505],[4.83132971,45.75636956],[4.83157831,45.75674985],[4.83170822,45.75691367],[4.83185766,45.757058],[4.83206127,45.75719637],[4.83232498,45.75730959],[4.83263671,45.75743126],[4.83340951,45.75766652],[4.83382429,45.75780971],[4.83404679,45.75791432],[4.8342844,45.75805192],[4.83445511,45.75821483],[4.83458568,45.75839293],[4.83475478,45.75867019],[4.83527083,45.75954465],[4.83541889,45.75980809],[4.8355321,45.76005325],[4.83562665,45.76033693],[4.83570231,45.76065438],[4.8357333,45.76088708],[4.83577792,45.76171964],[4.83582082,45.76251412],[4.83587552,45.76324789],[4.83595543,45.76457833],[4.83601866,45.7658201],[4.83606091,45.76660031],[4.83610456,45.76726142],[4.83612801,45.76762765],[4.8361564,45.76780326],[4.8362256,45.76797795],[4.83634173,45.76813731],[4.83646996,45.76826306],[4.83665236,45.76838285],[4.83684047,45.76847868],[4.83719879,45.76857549],[4.83751415,45.76862563],[4.83837171,45.76862558],[4.84033312,45.7686533],[4.8415587,45.76866407],[4.84291281,45.76865767],[4.84356749,45.76868592],[4.84402476,45.76871382],[4.84547422,45.76885768],[4.84637605,45.76893278],[4.84850211,45.76913769],[4.84977328,45.76925214],[4.85131115,45.76939394],[4.85266692,45.76951189],[4.85396319,45.76963936],[4.85522078,45.76975405],[4.85646566,45.76988807],[4.85756667,45.77000149],[4.85912628,45.77017128],[4.8596599,45.77023074],[4.859981,45.77025686],[4.86037732,45.77029082],[4.86076576,45.77030115],[4.86116121,45.77031607],[4.8615163,45.77034143],[4.86272568,45.77044283],[4.86383264,45.77053701],[4.8648931,45.77065603],[4.86587767,45.77075293],[4.86631298,45.77079996],[4.86675324,45.77084752],[4.86756082,45.77094364],[4.86824448,45.7710092],[4.8687904,45.77103976],[4.86936966,45.77105528],[4.86978508,45.7710602],[4.87022726,45.77105498],[4.87086575,45.77102628],[4.87135377,45.77098193],[4.87189574,45.77092682],[4.87248399,45.77084209],[4.87332119,45.77069457],[4.87452269,45.77047689],[4.87574413,45.77024922],[4.87680371,45.77005378],[4.87816046,45.76980874],[4.87930094,45.76959715],[4.8805763,45.76935868],[4.88154154,45.76918438],[4.88268073,45.76896948],[4.88402488,45.7687232],[4.88533419,45.7684839],[4.88645423,45.7682727],[4.88691551,45.768184],[4.8892011,45.76777207],[4.89069919,45.76749508],[4.89181619,45.76728556],[4.89341547,45.76698791],[4.89505497,45.76668856],[4.89616509,45.76648464],[4.89717057,45.76629977],[4.89826376,45.76609859],[4.89935037,45.76590232],[4.90055845,45.76568421],[4.9016446,45.7654784],[4.90316953,45.76519586],[4.90564264,45.76474283],[4.90684257,45.764523],[4.90747453,45.76440195],[4.90827709,45.76424544],[4.90987956,45.7639063],[4.91198893,45.76348944],[4.9133718,45.76320137],[4.91475165,45.76284927],[4.91599203,45.76245228],[4.91750529,45.76201697],[4.92109509,45.76095707]]}},{"type":"Feature","id":"modern-d","properties":{"id":"modern-d"},"geometry":{"type":"LineString","coordinates":[[4.80444772,45.78068836],[4.80397477,45.7801699],[4.80336737,45.77952832],[4.80313858,45.77917016],[4.80302003,45.77880362],[4.80301889,45.77839878],[4.80314526,45.77799115],[4.80332081,45.77773127],[4.80349821,45.77751304],[4.80391866,45.77721206],[4.80418427,45.77706334],[4.80456541,45.77683467],[4.80479568,45.77665695],[4.80500664,45.77643483],[4.80512791,45.77628646],[4.8051895,45.77614221],[4.80528296,45.77594963],[4.80533152,45.77570446],[4.80535351,45.77543605],[4.80536317,45.77470351],[4.80534097,45.77401931],[4.80528931,45.77343697],[4.80529604,45.77306208],[4.80535754,45.77211371],[4.80540552,45.77166612],[4.80544606,45.7712425],[4.80550253,45.77079472],[4.80554664,45.76969229],[4.80556804,45.76922146],[4.8055571,45.7689776],[4.80552199,45.76876403],[4.80536915,45.76820177],[4.8053513,45.76799378],[4.80533586,45.76783932],[4.80537454,45.76737407],[4.80547871,45.76647275],[4.80553121,45.76612627],[4.8055835,45.76596437],[4.80570906,45.76572941],[4.8058296,45.76557195],[4.8060014,45.76541933],[4.80619949,45.76528399],[4.80639945,45.76519028],[4.80679354,45.76506253],[4.80979168,45.76419872],[4.81215984,45.76351542],[4.81491458,45.76272827],[4.8186347,45.76165775],[4.81942492,45.76144975],[4.81987074,45.76133867],[4.82034233,45.76123298],[4.82113393,45.76106007],[4.82241695,45.76083578],[4.82366697,45.76064582],[4.82460165,45.76050553],[4.82524192,45.76041259],[4.82587601,45.76032057],[4.82678137,45.76018912],[4.82726668,45.76010909],[4.82738368,45.76009306],[4.82804442,45.76000253],[4.82857627,45.75991332],[4.82904648,45.75977785],[4.82955702,45.75959385],[4.83003168,45.75936897],[4.83030143,45.75920891],[4.83099805,45.75879557],[4.83156407,45.7584597],[4.83239196,45.75795903],[4.83254855,45.75784838],[4.83271256,45.75771375],[4.83288426,45.75756108],[4.83323453,45.75721988],[4.83370874,45.75679851],[4.83401867,45.75650583],[4.83431566,45.75630274],[4.83483113,45.75604121],[4.83528457,45.75591204],[4.83583228,45.75579863],[4.83632429,45.75576981],[4.83684396,45.75578801],[4.83814497,45.75596741],[4.83867475,45.7560211],[4.83919659,45.75608687],[4.83941037,45.75611187],[4.83970089,45.75614111],[4.83995661,45.75615327],[4.84021206,45.75615948],[4.84050865,45.75613501],[4.84080469,45.75609863],[4.84107443,45.75604499],[4.84138557,45.7559666],[4.84373003,45.75515216],[4.84795081,45.75370627],[4.85057166,45.75280214],[4.85377873,45.75170024],[4.85597208,45.75093656],[4.86059401,45.74935019],[4.8627203,45.7486117],[4.86528228,45.74773236],[4.87232267,45.74530506],[4.87312614,45.74502493],[4.87728646,45.74359118],[4.87838144,45.74317938],[4.8790673,45.74293164],[4.87961095,45.74273475],[4.87988853,45.74266892],[4.88040998,45.74254398],[4.88079744,45.74246375],[4.88125368,45.74239982],[4.88186173,45.74230862],[4.88229221,45.74223932],[4.88258733,45.74218499],[4.88292354,45.74209997],[4.88325865,45.74199114],[4.88360854,45.74183435],[4.88387321,45.74167354],[4.88430883,45.74134809],[4.88454416,45.74110459],[4.88472824,45.7408563],[4.88521088,45.74007727],[4.88545795,45.73972037],[4.88553027,45.73962942],[4.88561929,45.73953213],[4.88584584,45.73928287],[4.88635728,45.73875921],[4.88752558,45.73754781],[4.88808574,45.7369754],[4.88833146,45.73677333],[4.8887818,45.73639989],[4.8889541,45.73626499],[4.88914967,45.73608192],[4.88928607,45.73590615],[4.88935837,45.7358152],[4.88943586,45.73565267],[4.88950348,45.73546061],[4.8895631,45.7350833],[4.88957121,45.7349576],[4.8895535,45.73474742],[4.88950216,45.73454219],[4.8893951,45.734295],[4.88914514,45.73388649],[4.8887956,45.73330592],[4.88864008,45.73300126],[4.88853303,45.73275406],[4.88834439,45.73220749],[4.88820374,45.73179371],[4.88807314,45.73155402],[4.88794102,45.73136736],[4.88745199,45.73074116],[4.88695173,45.73008731],[4.88681518,45.72984776],[4.8867432,45.72966949],[4.88672199,45.72955562],[4.88671444,45.72939262],[4.88676805,45.72874419],[4.88717589,45.72431003],[4.88722093,45.72382091],[4.8872227,45.72373022],[4.88720809,45.72332891],[4.88718255,45.7228637],[4.88714316,45.7226582],[4.88691524,45.72207905],[4.88682574,45.72186632],[4.88678188,45.72170322],[4.88678101,45.72150239],[4.8868033,45.72135519],[4.88685743,45.72116962],[4.88692721,45.72098368],[4.88714588,45.72048215],[4.88762767,45.719351],[4.88779004,45.71898803],[4.88782338,45.71886176],[4.88784348,45.71872593],[4.88784775,45.71837249],[4.88786352,45.71748021],[4.88787173,45.716951],[4.88792527,45.7164556],[4.88805342,45.71536906],[4.88810059,45.71480223],[4.88814841,45.71422767],[4.88816772,45.71380056],[4.88815719,45.71338997],[4.88814858,45.71321651],[4.88811983,45.71288612],[4.88803458,45.71232718],[4.88794599,45.71193775],[4.88772437,45.7110697],[4.88762717,45.71068753],[4.88747956,45.71008764],[4.88737152,45.70964061],[4.88723576,45.70909429],[4.88719298,45.70885629],[4.88718922,45.70867831],[4.88719527,45.70851893],[4.88721302,45.70837026],[4.88726557,45.70815099],[4.88731296,45.70800891],[4.88735934,45.70790333],[4.88743694,45.70775006],[4.88768451,45.70730916],[4.88786567,45.70699132],[4.88795288,45.70677974],[4.88797229,45.70668133],[4.88799047,45.70655768],[4.88799742,45.70645721],[4.88800418,45.70563759]]}},{"type":"Feature","id":"modern-c","properties":{"id":"modern-c"},"geometry":{"type":"LineString","coordinates":[[4.836000562972288,45.76787480700301],[4.8361781530115024,45.771033681618405],[4.831768106183603,45.77441622614691],[4.828615882980785,45.77805468339443],[4.827683535272712,45.77910746929078],[4.827505945233469,45.77968030032508],[4.827794539816466,45.781326338723034],[4.828460502464651,45.78211588367935],[4.832567272131001,45.78527395169306]]}},{"type":"Feature","id":"t12-c3","properties":{"id":"t12-c3"},"geometry":{"type":"LineString","coordinates":[[4.8268295759100965,45.765946319128716],[4.8302181937588955,45.76680926529667],[4.832043578385935,45.76339995903746],[4.838103192244546,45.76367280602429],[4.873994834367949,45.76380965939455],[4.890676779803783,45.75958243892674],[4.9057228401882185,45.76062760589676],[4.909370046627288,45.76144552465479],[4.908641846054564,45.762964453669895],[4.908574669249333,45.76336280002869],[4.909212848901262,45.763831439161834],[4.909817440150164,45.76419853706679],[4.9097838517471075,45.76477651610611]]}},{"type":"Feature","id":"ligne-ouest","properties":{"id":"ligne-ouest"},"geometry":{"type":"MultiLineString","coordinates":[[[4.857910076803847,45.76078119429019],[4.85744339191848,45.763280213665155],[4.859387984503172,45.766050769537514],[4.858920582837186,45.76822345990851],[4.85464054468639,45.77213533999222],[4.850902747771244,45.77333073031582],[4.841089346629246,45.7724605044387],[4.805074321377191,45.77549067972777]],[[4.805192237525148,45.775524432988675],[4.802476407903924,45.77867765759851],[4.806708159941763,45.783225798779824],[4.80296914615505,45.785489624085045],[4.80470822233471,45.786843832777066],[4.805056037570893,45.78775335746073],[4.804388475215546,45.789332978280015],[4.800997276663878,45.79147529483794],[4.796707555419857,45.7915359252402],[4.791361020697337,45.79622056931163]]]}},{"type":"Feature","id":"teol-craponne","properties":{"id":"teol-craponne"},"geometry":{"type":"LineString","coordinates":[[4.771048456972949,45.752253039283545],[4.759648423940064,45.74782072997334],[4.75714108702698,45.74735415093332],[4.715375875283456,45.747356287468676]]}},{"type":"Feature","id":"t8","properties":{"id":"t8"},"geometry":{"type":"LineString","coordinates":[[4.920775709902159,45.75996302790671],[4.9211946184922795,45.7586478340327],[4.921229527245515,45.758014584744245],[4.921194625161888,45.75555459007532],[4.920915352540419,45.75462901427841],[4.920531316301947,45.75360604547848],[4.919588791017446,45.752558626063774],[4.918611336402336,45.75095096159134],[4.9181575322500635,45.74997666471191],[4.917738620105183,45.748977907150106],[4.917564073920516,45.748295829037346],[4.917633894719387,45.74737016140938],[4.918087720970533,45.74624966218397],[4.918750991799271,45.745226654993985],[4.919344481896047,45.74388695652118],[4.919588809758011,45.743058717149864],[4.919763274274402,45.742108700081815],[4.919972724978777,45.74145092544313],[4.920391681012688,45.74062256220631],[4.921124699684469,45.73979427035607],[4.921822820078006,45.73906340621403],[4.922660667719697,45.73818629897295],[4.91697145687786,45.73679762917496],[4.916866814171783,45.736359126656936],[4.917006450095926,45.735555194085805],[4.918193263499205,45.73258302997411],[4.918088563871521,45.73214450528914],[4.917110219344494,45.730437748588855],[4.915993276442805,45.72829364847786],[4.915434777378209,45.72719721536572],[4.915434771284197,45.72646621590778],[4.915050760390187,45.72495540622478],[4.915050714257831,45.72366379208319],[4.914806323994156,45.72249395968848],[4.914212867241247,45.72156783761449],[4.913200509887332,45.720714824013555],[4.909849397684184,45.71842397239888],[4.90751026576018,45.71630323118555],[4.905206743284879,45.71425608605546],[4.9019252787629455,45.711233656256354],[4.900284585286386,45.70933237810996],[4.898155152106597,45.707114195543824],[4.896689032537296,45.70540778142475],[4.895118177313265,45.70360382596556],[4.8947690905671095,45.70331131576205],[4.893477560896457,45.703189162660465],[4.8884159357654084,45.70521278823736]]}},{"type":"Feature","id":"telepherique-ouest","properties":{"id":"telepherique-ouest"},"geometry":{"type":"LineString","coordinates":[[4.829906343007593,45.72464654710416],[4.814445990784037,45.72327107766415],[4.7994219320124785,45.735290299630975],[4.768793527933298,45.73490172776346]]}},{"type":"Feature","id":"bhns-rive-droite","properties":{"id":"bhns-rive-droite"},"geometry":{"type":"LineString","coordinates":[[4.8183501849141805,45.73447874336159],[4.827758498845526,45.745504137997216],[4.831778080803105,45.750490546218316],[4.834545370155723,45.75437222605396],[4.836371301152127,45.7569002758398],[4.837569637112864,45.75940815415325],[4.838197252983321,45.761876416284764],[4.838168790487629,45.76372760078351],[4.8380259961166985,45.76675290126266],[4.83794048646746,45.76880287135569],[4.838282895509138,45.77254452476484],[4.8393666182331,45.775589620083906],[4.8411837350978715,45.77922917208173]]}},{"type":"Feature","id":"bhns-parilly","properties":{"id":"bhns-parilly"},"geometry":{"type":"LineString","coordinates":[[4.932750076939442,45.7441225329751],[4.937437251170962,45.74324656075163],[4.936388595241027,45.7399421367563],[4.936023154538219,45.738811047374384],[4.93514927459691,45.73779082945413],[4.9325499166600935,45.73425673569332],[4.931993811243359,45.73324752489373],[4.931517149457079,45.73260428212035],[4.9298964995165875,45.730541419399],[4.928784288682181,45.72841193250554],[4.927830965109592,45.7271807858601],[4.926972973894436,45.72630454784456],[4.925701875797415,45.72556139850343],[4.922079246221983,45.724075070161064],[4.920649270412696,45.722522141423354],[4.9226671386405485,45.7206696701528],[4.924160678904656,45.719993003654935],[4.928323525170754,45.71931632896212],[4.930865721364,45.71896134879714],[4.925682522825241,45.715049159036425],[4.925046973777086,45.71464977569454],[4.924061872752333,45.714183824855326],[4.922727219750897,45.71362911640921],[4.92166267509478,45.71310768544993],[4.920836461331845,45.712264510200356],[4.920407465723912,45.711942768922995],[4.919426576071203,45.710105452949676],[4.918711583391826,45.70912909115822],[4.917615261283515,45.70783094736413],[4.91682082497357,45.706721398857326],[4.915788057769703,45.7052567611062],[4.91448518222046,45.70357016100769],[4.8884035360026985,45.71937277491412]]}},{"type":"Feature","id":"t9-final","properties":{"id":"t9-final"},"geometry":{"type":"LineString","coordinates":[[4.862996246734696,45.769302641820246],[4.8634644812027545,45.77411260516186],[4.867465757564474,45.775389254159734],[4.866529288629266,45.77930808712745],[4.865379985844328,45.78064398996372],[4.869806929903831,45.781623631700626],[4.872871737330314,45.78132677238611],[4.889345077245395,45.785037400214065],[4.890749776412605,45.78266261185621],[4.893303782600839,45.78269229714792],[4.896198322947896,45.78396874972279],[4.8993056971438875,45.78281103815533],[4.900114465769917,45.77999087091001],[4.905846081696694,45.78008720981359],[4.9079744201871165,45.78079968535366],[4.909932491598113,45.783708865985375],[4.912529064556622,45.78272926088772],[4.9147425365868,45.779137228264716],[4.92098003944858,45.776759019881666],[4.92417254718427,45.77693715025177],[4.9304298623456475,45.778659047830104],[4.932515634065794,45.773404124964316],[4.933664936850761,45.77251341099341],[4.93243050052692,45.77165237396568],[4.932558342430582,45.767732887634395],[4.933494811366614,45.76313024436942],[4.9334096778269725,45.758586617618704],[4.920980181043063,45.75915087897076],[4.920682213654459,45.75962604199944]]}},{"type":"Feature","id":"t10-final","properties":{"id":"t10-final"},"geometry":{"type":"LineString","coordinates":[[4.8241291383934595,45.731388840662504],[4.823975556264401,45.72827984181586],[4.825383392444195,45.726662736647825],[4.825920929895091,45.72662699898811],[4.830310819075464,45.726662736647825],[4.83146268503981,45.726618064569664],[4.835468618898261,45.72636790027326],[4.840063303711048,45.726073064804325],[4.84355729713991,45.72576035620733],[4.844043640546886,45.72569781427785],[4.844824349701298,45.72528682271397],[4.845080319916775,45.7248668934279],[4.844939536298398,45.724143178101684],[4.845436080218946,45.721859476943166],[4.845640856390531,45.72127868720989],[4.8459736176685055,45.718991210468204],[4.846645848017545,45.71576492056775],[4.846761034613337,45.71469257169474],[4.846505064399196,45.71420107158437],[4.845442788009336,45.7137721225011],[4.844930847579747,45.713316360492314],[4.84484125800526,45.712762291868245],[4.845058832687442,45.71274441859549],[4.844905256601436,45.71211885026668],[4.845084435750437,45.71161839070382],[4.84558357766943,45.711359222383095],[4.847644137897191,45.710251040836],[4.848284063433255,45.710143796294204],[4.850869362599951,45.70967013044066],[4.852098001868541,45.709437772200744],[4.853851397838326,45.70886579061161],[4.855451211679082,45.70841892592293],[4.856449495515676,45.70815080539472],[4.857895727228708,45.70803461943294],[4.861159347463428,45.70804355682316],[4.863322295777635,45.70802568204138],[4.864346176635536,45.70785587132798],[4.87154279603206,45.70708702040821],[4.873744139876919,45.70671164236418],[4.875356752228271,45.70635413712188],[4.877353319901545,45.705639119778056],[4.878671566506853,45.705093912907756],[4.878991529275538,45.70463808013153],[4.879733842898048,45.703538703438596],[4.881064881684068,45.7018404402275],[4.883496598723042,45.70227841919498],[4.885096412563797,45.70246612341663],[4.886286674061353,45.70277896238562],[4.887464137048283,45.70341357320194],[4.887745701689369,45.70384260370585],[4.887732903178744,45.705719565046536],[4.887707306157438,45.706532895389785],[4.8881424555219155,45.70644351900745],[4.888839560246566,45.70606709177005],[4.888813963225317,45.705405697647706]]}},{"type":"Feature","id":"navette-fluv","properties":{"id":"navette-fluv"},"geometry":{"type":"LineString","coordinates":[[4.818464825957477,45.73194482638098],[4.819672041317318,45.73250677137122],[4.820342864773295,45.73320940401899],[4.82121549121652,45.73508326564095],[4.822020595905116,45.73691023673814],[4.822759208780951,45.73761283456608],[4.823967749259737,45.7376127151598],[4.823631977605601,45.73859642651152],[4.825443958431578,45.74070426436205],[4.8305330521267535,45.7467627579168],[4.831338721225336,45.74714308246732],[4.832310263372591,45.74712654667121],[4.831765251923343,45.747573011447514],[4.8321206941734545,45.748763566727064],[4.836607128022763,45.75473797704265],[4.836607128022763,45.755382781521746],[4.836346470373371,45.7558457134765],[4.83710475561486,45.756011046748625],[4.837720855513112,45.75647397349107],[4.838384347711212,45.7573336843962],[4.839284801409377,45.75908613099102],[4.840161558957078,45.75959862855589],[4.839735028257877,45.75987967360879],[4.839237413931528,45.76078893493744],[4.839474375431621,45.7618965512535],[4.839758729230283,45.76351660715716],[4.839806121530046,45.76513661601717],[4.839557793943868,45.76690604073124],[4.83904782031982,45.767498949126974],[4.8384528510915175,45.76773611072082],[4.83904782031982,45.76800884530738],[4.839540794822682,45.76911162808025],[4.839659791402568,45.77042782471358],[4.839965775577326,45.771601703103244],[4.840169765027497,45.77326169097549],[4.841801689206051,45.77617840615781],[4.8424306566759014,45.77645109946275],[4.842226667226697,45.776925345513206],[4.8434676015206435,45.77948620368758],[4.844674539097724,45.78153717721236],[4.846425448541197,45.783078321544025],[4.849711495226046,45.78524185122137],[4.853383305321614,45.78648654223619],[4.854097268395009,45.78617833562146]]}},{"type":"Feature","id":"t3-renf","properties":{"id":"t3-renf"},"geometry":{"type":"LineString","coordinates":[[5.035054230099973,45.76615888046459],[5.033049552699595,45.76647281503165],[5.032885905564939,45.766701129970585],[5.032763170213684,45.76732899123465],[5.0323949641609715,45.76761438038159],[5.013084602263632,45.769983053951876],[4.988373960709737,45.772950871883296],[4.978227838356503,45.77420644664812],[4.976550455226516,45.77454887122326],[4.975241278148189,45.77509103916739],[4.972786571127244,45.77654630600682],[4.9711910115639455,45.77723112431963],[4.9695136284329635,45.77748792901923],[4.96726348033107,45.77740232758413],[4.964358743689587,45.7761753592427],[4.960103898198923,45.77452030807706],[4.958303779717653,45.77337888406535],[4.953435277459079,45.7705252218268],[4.950816923304529,45.76892710719625],[4.949057716605665,45.76812803270926],[4.947298509907739,45.76738602472162],[4.939648006359988,45.76544534178174],[4.931670175678988,45.763447513667984],[4.9217286122449195,45.76116418906139],[4.914937256154985,45.75925183279904],[4.911009724920973,45.75850970674651],[4.893294922588979,45.75611200126983],[4.887362662028096,45.75534127153176],[4.886094396734194,45.75497018373423],[4.884457925386556,45.75434218337773],[4.8831896600926825,45.75357144600889],[4.88130771804353,45.753114707730504],[4.872920802389245,45.752572326169826],[4.8706297425029845,45.752743605126454],[4.86612944629826,45.753314531187414],[4.86457479851839,45.75365708402012],[4.863224709657715,45.75428509208544],[4.8617927972281905,45.75505581959902],[4.861833709012529,45.760793123175404]]}},{"type":"Feature","id":"bhns-kimmerling","properties":{"id":"bhns-kimmerling"},"geometry":{"type":"LineString","coordinates":[[4.8991326177443,45.752669825201025],[4.908911365175612,45.7508259395278],[4.912777812548654,45.74971719009099],[4.915584959272849,45.74879321540172],[4.9173287256450635,45.748423057603304],[4.919738634624906,45.748496976631856],[4.927471529372582,45.745780388041226],[4.932417261368869,45.74426113450741]]}}]}